OBJECT_NAME,OBJECT_ID,EPOCH,MEAN_MOTION,ECCENTRICITY,INCLINATION,RA_OF_ASC_NODE,ARG_OF_PERICENTER,MEAN_ANOMALY,EPHEMERIS_TYPE,CLASSIFICATION_TYPE,NORAD_CAT_ID,ELEMENT_SET_NO,REV_AT_EPOCH,BSTAR,MEAN_MOTION_DOT,MEAN_MOTION_DDOT
SCD 1,1993-009B,2026-06-01T11:49:26.041728,14.46112655,.00418336,24.9707,304.4817,332.1504,54.2695,0,U,22490,999,75884,.68675162E-4,.437E-5,0
TECHSAT 1B (GO-32),1998-043D,2026-06-03T13:51:55.224864,14.24425649,.00003192,99.0064,146.9934,213.6137,146.5021,0,U,25397,999,44939,.49971906E-4,.69E-6,0
SCD 2,1998-060A,2026-06-04T06:11:52.774080,14.45520563,.00166583,24.9935,151.8913,347.4640,88.7459,0,U,25504,999,45845,.66370493E-4,.42E-5,0
DLR-TUBSAT,1999-029B,2026-06-04T04:54:09.294336,14.52423384,.00148162,98.6692,150.2812,33.8590,326.3547,0,U,25757,999,43136,.45301378E-4,.136E-5,0
TERRA,1999-068A,2026-06-04T06:50:27.145824,14.61092716,.00008103,97.9462,205.3422,263.3577,185.5303,0,U,25994,999,40772,.10891886E-3,.491E-5,0
MAROC-TUBSAT,2001-056D,2026-06-04T00:24:07.437600,13.70261883,.00199056,99.8077,331.6285,174.4491,304.2897,0,U,27004,999,22438,.13965891E-4,-.34E-6,0
AQUA,2002-022A,2026-06-04T06:22:07.034880,14.62137848,.00016081,98.4271,124.2907,56.5787,47.4575,0,U,27424,999,28138,.20809358E-3,.997E-5,0
SHIYAN-1 (SY-1),2004-012A,2026-06-04T03:12:59.702976,15.33414968,.00066201,97.8690,232.3582,74.0222,286.1747,0,U,28220,999,20909,.49920069E-3,.16062E-3,0
AURA,2004-026A,2026-06-04T06:00:29.775168,14.61308914,.00013943,98.3412,111.5973,70.6295,289.5056,0,U,28376,999,16432,.21168439E-3,.997E-5,0
IRS-P5 (CARTOSAT-1),2005-017A,2026-06-04T01:25:05.841696,14.91014053,.00026792,97.5314,178.7190,96.8827,263.2696,0,U,28649,999,14186,.17161714E-3,.1645E-4,0
SINAH 1,2005-043D,2026-06-04T06:35:33.305856,14.64148784,.00135266,98.2845,289.5220,320.7964,39.2258,0,U,28893,999,9863,.90862977E-4,.429E-5,0
RESURS-DK 1,2006-021A,2026-06-04T00:18:23.517216,15.13154696,.00060306,69.9332,13.6552,303.6136,56.4455,0,U,29228,999,10058,.13938843E-3,.237E-4,0
ARIRANG-2 (KOMPSAT-2),2006-031A,2026-06-04T07:47:29.278752,14.64651901,.00157221,97.8302,340.3937,111.6262,12.3586,0,U,29268,999,5959,.97649299E-4,.475E-5,0
LAPAN-TUBSAT,2007-001A,2026-06-04T06:11:35.630592,14.85935098,.00109546,98.1338,154.1906,224.1336,135.9005,0,U,29709,999,4923,.10380752E-4,.33E-6,0
HAIYANG-1B,2007-010A,2026-06-03T13:55:35.735808,14.31023350,.00123401,98.3489,136.9535,239.3242,120.6726,0,U,31113,999,99868,.54011753E-4,.1E-5,0
COSMO-SKYMED 1,2007-023A,2026-06-04T07:14:54.907296,14.97043611,.00015546,97.8863,347.0505,81.4027,278.7371,0,U,31598,999,2786,.23034006E-3,.2593E-4,0
TERRASAR-X,2007-026A,2026-06-01T10:46:51.394080,15.19149262,.0001803,97.4458,160.3801,98.4388,261.7051,0,U,31698,999,5083,.41227166E-4,.799E-5,0
WORLDVIEW-1 (WV-1),2007-041A,2026-06-04T05:27:46.752480,15.24115578,.00033234,97.3865,275.1602,55.2782,304.8768,0,U,32060,999,4090,.29202594E-3,.7029E-4,0
YAOGAN-3,2007-055A,2026-06-04T07:22:19.530336,14.90732945,.00020404,97.8155,185.3129,90.1572,269.9880,0,U,32289,999,395,.37849846E-3,.3662E-4,0
COSMO-SKYMED 2,2007-059A,2026-06-04T06:23:47.676192,14.82160735,.00014596,97.8884,339.0521,87.6361,272.5019,0,U,32376,999,9,.71094632E-4,.514E-5,0
RADARSAT-2,2007-061A,2026-06-04T07:16:29.256960,14.29981437,.00012898,98.5775,162.4195,83.2627,276.8702,0,U,32382,999,96411,-.43344949E-4,-.155E-5,0
CARTOSAT-2A,2008-021A,2026-06-04T06:16:57.972576,14.79218953,.00123902,97.7635,204.4108,147.0923,213.1063,0,U,32783,999,97689,.10831982E-3,.755E-5,0
HUANJING 1A (HJ-1A),2008-041A,2026-06-04T06:54:01.481760,14.83955765,.00187154,97.6678,141.6257,175.9972,184.1396,0,U,33320,999,95649,.13997018E-3,.1116E-4,0
HUANJING 1B (HJ-1B),2008-041B,2026-06-04T06:01:07.143168,14.83292684,.00350264,97.6513,144.8008,224.4456,135.3947,0,U,33321,999,95649,.99395295E-4,.769E-5,0
GEOEYE 1,2008-042A,2026-06-04T07:24:59.681376,14.64713444,.00055609,98.1237,229.4032,100.3179,259.8651,0,U,33331,999,94826,.1272198E-3,.63E-5,0
THEOS,2008-049A,2026-06-04T06:53:00.255264,14.20131146,.0001281,98.5572,212.9884,81.1032,279.0290,0,U,33396,999,91613,.55861187E-4,.77E-6,0
COSMO-SKYMED 3,2008-054A,2026-06-04T06:15:58.779936,15.06868246,.0014499,97.8294,13.6173,315.8227,44.1841,0,U,33412,999,95499,.24354344E-3,.3575E-4,0
YAOGAN-4,2008-061A,2026-06-03T21:02:34.139328,14.83173206,.0015609,97.9306,88.4859,111.7893,248.4984,0,U,33446,999,94369,.14933E-3,.1167E-4,0
GOSAT (IBUKI),2009-002A,2026-06-03T07:08:13.868736,14.67539132,.0001658,98.0881,265.5546,91.7072,268.4322,0,U,33492,999,92942,.21933709E-3,.1196E-4,0
DEIMOS-1,2009-041A,2026-06-04T07:10:49.573632,14.75223755,.00007297,97.7391,313.0859,140.9909,219.1354,0,U,35681,999,90498,.10482567E-3,.661E-5,0
